NORAD_CAT_ID,OBJECT_NAME,OBJECT_TYPE,EPOCH,MEAN_MOTION,ECCENTRICITY,INCLINATION,RA_OF_ASC_NODE,ARG_OF_PERICENTER,MEAN_ANOMALY,BSTAR,MEAN_MOTION_DOT,MEAN_MOTION_DDOT,TLE_LINE0,TLE_LINE1,TLE_LINE2,SEMIMAJOR_AXIS,PERIOD,APOGEE,PERIGEE,DECAYED
49426.0,STARLINK-3114,PAYLOAD,2022-09-18 20:20:23,15.08845034,0.0001618,53.2173,160.6979,59.0077,301.1074,0.00012725,1.738e-05,0.0,0 STARLINK-3114,1 49426U 21104U   22261.84749871  .00001738  00000-0  12725-3 0  9993,2 49426  53.2173 160.6979 0001618  59.0077 301.1074 15.08845034 47229,6917.865,95.437,540.849,538.611,0.0
49426.0,STARLINK-3114,PAYLOAD,2022-09-19 02:41:56,15.08843415,0.0001943999999999,53.2174,159.5119,48.5661,311.5498,0.00012563,1.712e-05,0.0,0 STARLINK-3114,1 49426U 21104U   22262.11246100  .00001712  00000-0  12563-3 0  9993,2 49426  53.2174 159.5119 0001944  48.5661 311.5498 15.08843415 48347,6917.87,95.437,541.08,538.39,0.0
49426.0,STARLINK-3114,PAYLOAD,2022-09-19 10:38:52,15.08845064,0.0001689,53.217,158.0229,56.3465,303.7688,0.00010525,1.388e-05,0.0,0 STARLINK-3114,1 49426U 21104U   22262.44365865  .00001388  00000-0  10525-3 0  9994,2 49426  53.2170 158.0229 0001689  56.3465 303.7688 15.08845064 47316,6917.865,95.437,540.898,538.561,0.0
49426.0,STARLINK-3114,PAYLOAD,2022-09-19 20:11:11,15.08836271,0.0001549,53.2183,156.2375,61.1035,299.0112,6.0767e-06,-1.91e-06,0.0,0 STARLINK-3114,1 49426U 21104U   22262.84110658 -.00000191  00000-0  60767-5 0  9993,2 49426  53.2183 156.2375 0001549  61.1035 299.0112 15.08836271 47379,6917.892,95.438,540.828,538.685,0.0
49426.0,STARLINK-3114,PAYLOAD,2022-09-20 02:32:44,15.08838689,0.0002097,53.2161,155.0506,44.8762,315.2399,3.1995e-05,2.21e-06,0.0,0 STARLINK-3114,1 49426U 21104U   22263.10606604  .00000221  00000-0  31995-4 0  9997,2 49426  53.2161 155.0506 0002097  44.8762 315.2399 15.08838689 48499,6917.884,95.438,541.2,538.299,0.0
49426.0,STARLINK-3114,PAYLOAD,2022-09-20 10:29:40,15.08837178,0.0002145999999999,53.2156,153.5635,46.5891,313.528,-3.4893e-06,-3.44e-06,0.0,0 STARLINK-3114,1 49426U 21104U   22263.43726864 -.00000344  00000-0 -34893-5 0  9993,2 49426  53.2156 153.5635 0002146  46.5891 313.5280 15.08837178 47464,6917.889,95.438,541.239,538.269,0.0
49426.0,STARLINK-3114,PAYLOAD,2022-09-21 02:23:31,15.0884383,0.0001689,53.2178,150.5886,55.03,305.085,-2.7787e-05,-7.299999999999999e-06,0.0,0 STARLINK-3114,1 49426U 21104U   22264.09966440 -.00000730  00000-0 -27787-4 0  9994,2 49426  53.2178 150.5886 0001689  55.0300 305.0850 15.08843830 47566,6917.869000000002,95.437,540.9019999999998,538.565,0.0
49426.0,STARLINK-3114,PAYLOAD,2022-09-22 02:14:20,15.08819973,0.0001523,53.2174,146.1267,53.6095,306.5038,-6.397e-05,-1.305e-05,0.0,0 STARLINK-3114,1 49426U 21104U   22265.09328992 -.00001305  00000-0 -63970-4 0  9992,2 49426  53.2174 146.1267 0001523  53.6095 306.5038 15.08819973 48799,6917.941999999999,95.439,540.86,538.753,0.0
49426.0,STARLINK-3114,PAYLOAD,2022-09-22 08:35:52,15.08820162,0.0001593,53.2177,144.9378,54.2246,305.8894,-9.8919e-06,-4.45e-06,0.0,0 STARLINK-3114,1 49426U 21104U   22265.35825202 -.00000445  00000-0 -98919-5 0  9993,2 49426  53.2177 144.9378 0001593  54.2246 305.8894 15.08820162 47752,6917.941,95.439,540.908,538.7040000000002,0.0
49426.0,STARLINK-3114,PAYLOAD,2022-09-22 19:43:35,15.08826896,0.0001631999999999,53.2155,142.8563,49.4909,310.6225,-2.5329e-05,-6.91e-06,0.0,0 STARLINK-3114,1 49426U 21104U   22265.82193315 -.00000691  00000-0 -25329-4 0  9995,2 49426  53.2155 142.8563 0001632  49.4909 310.6225 15.08826896 48907,6917.92,95.438,540.914,538.656,0.0
49426.0,STARLINK-3114,PAYLOAD,2022-09-22 21:18:57,15.0884453,0.0002748999999999,53.2164,142.5593,66.8779,293.2502,-0.00024806,-4.235e-05,0.0,0 STARLINK-3114,1 49426U 21104U   22265.88816953 -.00004235  00000-0 -24806-3 0  9997,2 49426  53.2164 142.5593 0002749  66.8779 293.2502 15.08844530 47835,6917.8669999999975,95.437,541.633,537.83,0.0
49426.0,STARLINK-3114,PAYLOAD,2022-09-23 08:26:40,15.08833793,0.0001619,53.2168,140.4783,52.9327,307.1813,6.509e-05,7.48e-06,0.0,0 STARLINK-3114,1 49426U 21104U   22266.35185283  .00000748  00000-0  65090-4 0  9999,2 49426  53.2168 140.4783 0001619  52.9327 307.1813 15.08833793 47904,6917.899,95.438,540.884,538.644,0.0
49426.0,STARLINK-3114,PAYLOAD,2022-09-23 21:09:45,15.08835086,0.0001666999999999,53.2167,138.0992,53.0752,307.0393,0.00025413,3.758e-05,0.0,0 STARLINK-3114,1 49426U 21104U   22266.88177359  .00003758  00000-0  25413-3 0  9990,2 49426  53.2167 138.0992 0001667  53.0752 307.0393 15.08835086 47982,6917.895,95.438,540.914,538.607,0.0
49426.0,STARLINK-3114,PAYLOAD,2022-09-24 01:55:54,15.08842621,0.0001715,53.2171,137.2071,54.3015,305.8136,0.000315,4.729e-05,0.0,0 STARLINK-3114,1 49426U 21104U   22267.08049088  .00004729  00000-0  31500-3 0  9993,2 49426  53.2171 137.2071 0001715  54.3015 305.8136 15.08842621 48015,6917.871999999999,95.437,540.924,538.5509999999998,0.0
49426.0,STARLINK-3114,PAYLOAD,2022-09-24 19:25:08,15.08861585,0.0001747,53.2162,133.9363,54.4011,305.7144,0.00045113,6.903e-05,0.0,0 STARLINK-3114,1 49426U 21104U   22267.80912252  .00006903  00000-0  45113-3 0  9996,2 49426  53.2162 133.9363 0001747  54.4011 305.7144 15.08861585 48124,6917.814,95.436,540.888,538.471,0.0
49426.0,STARLINK-3114,PAYLOAD,2022-09-24 22:35:54,15.08871815,0.0001738,53.216,133.3417,54.4079,305.7075,0.00060763,9.404e-05,0.0,0 STARLINK-3114,1 49426U 21104U   22267.94159912  .00009404  00000-0  60763-3 0  9994,2 49426  53.2160 133.3417 0001738  54.4079 305.7075 15.08871815 48142,6917.783,95.436,540.85,538.446,0.0
49426.0,STARLINK-3114,PAYLOAD,2022-09-25 19:15:54,15.08854804,0.0001976999999999,53.2162,129.4754,52.853,307.2642,5.6339e-05,6.09e-06,0.0,0 STARLINK-3114,1 49426U 21104U   22268.80271515  .00000609  00000-0  56339-4 0  9997,2 49426  53.2162 129.4754 0001977  52.8530 307.2642 15.08854804 48273,6917.835,95.437,541.068,538.332,0.0
49426.0,STARLINK-3114,PAYLOAD,2022-09-26 07:58:59,15.08847714,0.0001851999999999,53.2159,127.0962,55.166,304.9506,-4.4074e-05,-9.9e-06,0.0,0 STARLINK-3114,1 49426U 21104U   22269.33263477 -.00000990  00000-0 -44074-4 0  9992,2 49426  53.2159 127.0962 0001852  55.1660 304.9506 15.08847714 49430,6917.857,95.437,541.003,538.441,0.0
49426.0,STARLINK-3114,PAYLOAD,2022-09-26 19:06:41,15.0884291,0.0001785,53.2161,125.0143,57.5109,302.6055,-0.00019321,-3.362e-05,0.0,0 STARLINK-3114,1 49426U 21104U   22269.79631852 -.00003362  00000-0 -19321-3 0  9990,2 49426  53.2161 125.0143 0001785  57.5109 302.6055 15.08842910 49506,6917.871,95.437,540.971,538.502,0.0
49426.0,STARLINK-3114,PAYLOAD,2022-09-26 20:42:05,15.08841778,0.0001742,53.2161,124.7169,59.3493,300.7671,-0.00018938,-3.301e-05,0.0,0 STARLINK-3114,1 49426U 21104U   22269.86255874 -.00003301  00000-0 -18938-3 0  9990,2 49426  53.2161 124.7169 0001742  59.3493 300.7671 15.08841778 48434,6917.875,95.437,540.945,538.535,0.0
49426.0,STARLINK-3114,PAYLOAD,2022-09-27 01:28:14,15.08846793,0.0001654,53.2172,123.8248,67.9878,292.129,-0.00010361,-1.937e-05,0.0,0 STARLINK-3114,1 49426U 21104U   22270.06128057 -.00001937  00000-0 -10361-3 0  9991,2 49426  53.2172 123.8248 0001654  67.9878 292.1290 15.08846793 48464,6917.86,95.437,540.869,538.58,0.0
49426.0,STARLINK-3114,PAYLOAD,2022-09-27 20:32:51,15.0885012,0.0001764,53.2171,120.2564,58.39,301.7264,0.00013714,1.896e-05,0.0,0 STARLINK-3114,1 49426U 21104U   22270.85615053  .00001896  00000-0  13714-3 0  9992,2 49426  53.2171 120.2564 0001764  58.3900 301.7264 15.08850120 49667,6917.849,95.437,540.935,538.494,0.0
49426.0,STARLINK-3114,PAYLOAD,2022-09-27 22:08:14,15.08852213,0.0001789,53.2172,119.9592,58.3279,301.7888,0.00015788,2.226e-05,0.0,0 STARLINK-3114,1 49426U 21104U   22270.92238886  .00002226  00000-0  15788-3 0  9996,2 49426  53.2172 119.9592 0001789  58.3279 301.7888 15.08852213 48598,6917.843000000003,95.437,540.946,538.47,0.0
49426.0,STARLINK-3114,PAYLOAD,2022-09-28 23:34:25,15.08841217,0.0001771999999999,53.2168,115.2017,55.2826,304.8333,0.00012182,1.651e-05,0.0,0 STARLINK-3114,1 49426U 21104U   22271.98223631  .00001651  00000-0  12182-3 0  9991,2 49426  53.2168 115.2017 0001772  55.2826 304.8333 15.08841217 48759,6917.877,95.437,540.9680000000002,538.516,0.0
49426.0,STARLINK-3114,PAYLOAD,2022-09-29 23:25:14,15.08826396,0.0001911999999999,53.2173,110.7408,61.6993,298.4192,-0.0001482,-2.645e-05,0.0,0 STARLINK-3114,1 49426U 21104U   22272.97585794 -.00002645  00000-0 -14820-3 0  9999,2 49426  53.2173 110.7408 0001912  61.6993 298.4192 15.08826396 49989,6917.922,95.438,541.11,538.464,0.0
49426.0,STARLINK-3114,PAYLOAD,2022-09-30 05:46:46,15.08829972,0.0001934,53.2175,109.5518,61.4671,298.6515,-0.00011353,-2.094e-05,0.0,0 STARLINK-3114,1 49426U 21104U   22273.24081671 -.00002094  00000-0 -11353-3 0  9991,2 49426  53.2175 109.5518 0001934  61.4671 298.6515 15.08829972 48943,6917.911,95.438,541.114,538.438,0.0
49426.0,STARLINK-3114,PAYLOAD,2022-09-30 13:43:41,15.08835656,0.0001875,53.2169,108.0644,59.6692,300.4486,-1.107e-05,-4.64e-06,0.0,0 STARLINK-3114,1 49426U 21104U   22273.57201047 -.00000464  00000-0 -11070-4 0  9994,2 49426  53.2169 108.0644 0001875  59.6692 300.4486 15.08835656 50078,6917.894,95.438,541.056,538.462,0.0
49426.0,STARLINK-3114,PAYLOAD,2022-09-30 20:05:14,15.08824115,0.0001712,53.2151,106.8756,56.0615,304.0540000000001,0.00017909,2.562e-05,0.0,0 STARLINK-3114,1 49426U 21104U   22273.83697477  .00002562  00000-0  17909-3 0  9994,2 49426  53.2151 106.8756 0001712  56.0615 304.0540 15.08824115 49038,6917.929,95.439,540.9780000000002,538.61,0.0
49426.0,STARLINK-3114,PAYLOAD,2022-10-01 13:34:28,15.08839779,0.0001735,53.2166,103.6039,55.5996,304.516,0.00024519,3.616e-05,0.0,0 STARLINK-3114,1 49426U 21104U   22274.56561288  .00003616  00000-0  24519-3 0  9991,2 49426  53.2166 103.6039 0001735  55.5996 304.5160 15.08839779 49141,6917.880999999999,95.438,540.946,538.5459999999998,0.0
